GSAT0101 (PRN E11)      
1 37846U 11060A   24059.44526462 -.00000083  00000+0  00000+0 0  9999
2 37846  57.1270   4.5024 0003928 355.2955   4.6958  1.70475964 76809
GSAT0102 (PRN E12)      
1 37847U 11060B   24058.50118892 -.00000086  00000+0  00000+0 0  9993
2 37847  57.1276   4.5280 0005244 333.9503 212.5446  1.70475454 76913
GSAT0103 (PRN E19)      
1 38857U 12055A   24058.89801288  .00000017  00000+0  00000+0 0  9993
2 38857  55.3548 124.6365 0005313 264.6917  95.3290  1.70473572 70682
GSAT0104 (PRN E20)      
1 38858U 12055B   24059.45383092  .00000019  00000+0  00000+0 0  9997
2 38858  55.3552 124.6229 0002495 254.9246 105.1286  1.70473790 70690
GSAT0201 (PRN E18)      
1 40128U 14050A   24059.13291582 -.00000057  00000+0  00000+0 0  9997
2 40128  49.7669 307.4840 1606516 146.9731 224.1844  1.85519668 62732
GSAT0202 (PRN E14)      
1 40129U 14050B   24057.23566897 -.00000059  00000+0  00000+0 0  9993
2 40129  49.7861 306.6350 1604873 147.7088 223.2272  1.85520360 64864
GSAT0203 (PRN E26)      
1 40544U 15017A   24056.29152863 -.00000095  00000+0  00000+0 0  9997
2 40544  56.9220   4.5368 0004642 287.0704  72.8646  1.70475961 54836
GSAT0204 (PRN E22)      
1 40545U 15017B   24057.13217688 -.00000092  00000+0  00000+0 0  9996
2 40545  56.9282   4.5290 0003951 277.0739  82.8694  1.70475625 17894
GSAT0205 (PRN E24)      
1 40889U 15045A   24058.07388769  .00000048  00000+0  00000+0 0  9991
2 40889  55.2718 244.8379 0006184  43.1035 316.9322  1.70473565 52675
GSAT0206 (PRN E30)      
1 40890U 15045B   24058.88110381  .00000051  00000+0  00000+0 0  9999
2 40890  55.2704 244.8109 0004241  43.0457 316.9735  1.70473644 52713
GSAT0209 (PRN E09)      
1 41174U 15079A   24058.46478229  .00000016  00000+0  00000+0 0  9995
2 41174  55.3729 124.3569 0003766 305.7895  54.2573  1.70474929 50441
GSAT0208 (PRN E08)      
1 41175U 15079B   24058.68448402  .00000017  00000+0  00000+0 0  9991
2 41175  55.3716 124.3488 0003457 300.4481  59.5996  1.70474753 50866
GSAT0211 (PRN E02)      
1 41549U 16030A   24058.80682787  .00000051  00000+0  00000+0 0  9992
2 41549  55.4188 244.8124 0003993  18.4717 341.5289  1.70473626 48340
GSAT0210 (PRN E01)      
1 41550U 16030B   24059.68465976  .00000055  00000+0  00000+0 0  9994
2 41550  55.4182 244.7890 0001503   1.8883 358.0983  1.70473816 48356
GSAT0207 (PRN E07)      
1 41859U 16069A   24056.99875942  .00000009  00000+0  00000+0 0  9996
2 41859  55.0362 124.4261 0004593 289.5870  70.4426  1.70474856 45048
GSAT0212 (PRN E03)      
1 41860U 16069B   24059.19950648  .00000017  00000+0  00000+0 0  9999
2 41860  55.0347 124.3616 0003020 309.0768  50.9775  1.70474994 45339
GSAT0213 (PRN E04)      
1 41861U 16069C   24058.98043725  .00000017  00000+0  00000+0 0  9995
2 41861  55.0371 124.3741 0004854 270.1882  89.8375  1.70473608 45199
GSAT0214 (PRN E05)      
1 41862U 16069D   24057.36697801  .00000011  00000+0  00000+0 0  9991
2 41862  55.0350 124.4124 0005188 277.9962  82.0250  1.70474875 45293
GSAT0215 (PRN E21)      
1 43055U 17079A   24060.20261521  .00000057  00000+0  00000+0 0  9992
2 43055  55.3955 244.5972 0001102  21.3723 338.6184  1.70474376 38683
GSAT0216 (PRN E25)      
1 43056U 17079B   24059.90781312  .00000056  00000+0  00000+0 0  9992
2 43056  55.3943 244.6053 0001885 325.0792  34.8942  1.70474500 38697
GSAT0217 (PRN E27)      
1 43057U 17079C   24059.54165977  .00000054  00000+0  00000+0 0  9994
2 43057  55.3943 244.6144 0002393 354.0945   5.8882  1.70474390 38672
GSAT0218 (PRN E31)      
1 43058U 17079D   24058.00194065  .00000048  00000+0  00000+0 0  9998
2 43058  55.3947 244.6541 0002092 311.5827  48.3866  1.70474415 38673
GSAT0221 (PRN E15)      
1 43564U 18060A   24056.14205901 -.00000095  00000+0  00000+0 0  9999
2 43564  57.3023   4.5128 0005436 298.4992  61.4313  1.70475659 34790
GSAT0222 (PRN E33)      
1 43565U 18060B   24059.29335441 -.00000084  00000+0  00000+0 0  9990
2 43565  57.3054   4.4296 0003843 278.3299  81.6212  1.70475322 34897
GSAT0219 (PRN E36)      
1 43566U 18060C   24060.10200732 -.00000081  00000+0  00000+0 0  9994
2 43566  57.3052   4.4099 0004770 308.9650  50.9893  1.70475583 34880
GSAT0220 (PRN E13)      
1 43567U 18060D   24059.14934983 -.00000084  00000+0  00000+0 0  9992
2 43567  57.3043   4.4362 0005108 301.0004  58.9436  1.70475731 34850
GSAT0223 (PRN E34)      
1 49809U 21116A   24058.12576775 -.00000088  00000+0  00000+0 0  9995
2 49809  57.2960   4.3585 0001980 274.4701 267.6531  1.70475841 13842
GSAT0224 (PRN E10)      
1 49810U 21116B   24058.53452264 -.00000086  00000+0  00000+0 0  9996
2 49810  57.2966   4.3459 0001641 293.5363 251.9451  1.70475853 13862
